HELIOS 1B               
1 25977U 99064A   20202.76611848 -.00000004  00000-0  66081-5 0  9996
2 25977  98.2848 358.8174 0000806 159.0993 201.0252 14.82485684111350
TERRA                   
1 25994U 99068A   20202.74984101  .00000007  00000-0  11645-4 0  9999
2 25994  98.2124 276.5707 0001301  93.4768 266.6581 14.57109870 95160
SL-16 R/B               
1 26070U 00006B   20202.45222293 -.00000208  00000-0 -82109-4 0  9992
2 26070  71.0035 103.9126 0014386  71.0612 289.2069 14.15468676 57303
MTI                     
1 26102U 00014A   20202.22898294  .00002933  00000-0  43656-4 0  9991
2 26102  97.4992  86.0439 0008816 102.8393 257.3839 15.56007966129613
TITAN 4B R/B            
1 26474U 00047B   20202.54823693  .00000004  00000-0  11338-4 0  9994
2 26474  67.9949 344.5941 0054648 166.0460 194.2208 14.95968542 84190
ENVISAT                 
1 27386U 02009A   20202.77531491 -.00000001  00000-0  13189-4 0  9998
2 27386  98.1357 208.0720 0001414  91.7559  81.4203 14.37986533963405
IDEFIX & ARIANE 42P R/B 
1 27422U 02021B   20202.49791844 -.00000026  00000-0  62327-5 0  9998
2 27422  98.3530 162.2016 0013102 129.2219 231.0129 14.29290958949883
AQUA                    
1 27424U 02022A   20202.51920360  .00000033  00000-0  17408-4 0  9997
2 27424  98.2101 142.6771 0000385 148.0930 340.5834 14.57109993968683
CZ-4B R/B               
1 27432U 02024C   20202.75701407 -.00000035  00000-0  56398-5 0  9998
2 27432  99.0877 205.5153 0051493  82.5582  90.3977 14.14095117938438
MIDORI II (ADEOS-II)    
1 27597U 02056A   20202.48151971  .00000005  00000-0  19543-4 0  9996
2 27597  98.5213 149.2409 0000334 110.1823 249.9394 14.27452960916528
H-2A R/B                
1 27601U 02056E   20202.35753446  .00000036  00000-0  27702-4 0  9993
2 27601  98.2238 236.4346 0072213 178.6568 191.8660 14.31959163919400
CZ-4B R/B               
1 28059U 03049C   20202.79997874 -.00000006  00000-0  10342-4 0  9997
2 28059  98.4847 119.7070 0050926  37.7737 322.7016 14.52604727887650
CZ-2C R/B               
1 28222U 04012C   20202.51808774  .00000206  00000-0  16432-4 0  9997
2 28222  97.6790 165.1525 0045495 277.3497 199.6132 15.10421065890987
SL-16 R/B               
1 28353U 04021B   20202.52122966 -.00000076  00000-0 -14798-4 0  9995
2 28353  71.0000 229.9729 0007615 281.5770  78.4497 14.14237952831818
CZ-4B R/B               
1 28415U 04035C   20202.37223873 -.00000195  00000-0 -83252-5 0  9995
2 28415  97.6111 243.5854 0050139 239.3063 120.3219 15.06879513868591
CZ-2C R/B               
1 28480U 04046B   20202.55875383  .00000003  00000-0  15818-4 0  9996
2 28480  98.0761 234.9377 0142982 126.7902  25.9297 14.25725578815131
ARIANE 5 R/B            
1 28499U 04049H   20202.84894059  .00000018  00000-0  95443-5 0  9991
2 28499  98.0572 304.7332 0092578 164.5325 308.6698 14.80035897841079
CZ-2D R/B               
1 28738U 05024B   20202.33731696  .00000279  00000-0  19797-4 0  9998
2 28738  97.3810 223.8190 0013584  72.8810 287.3908 15.12061092826370
SUZAKU (ASTRO-EII)      
1 28773U 05025A   20202.23708921  .00000397  00000-0  14955-4 0  9994
2 28773  31.3811 163.4883 0004587 179.1900 180.8755 15.17600056828946
ALOS (DAICHI)           
1 28931U 06002A   20202.79825656  .00000064  00000-0  21172-4 0  9992
2 28931  97.8474 186.8977 0001833  44.0314 316.1037 14.62723426772577
H-2A R/B                
1 28932U 06002B   20202.77285142 -.00000137  00000-0 -59148-5 0  9999
2 28932  98.3228 194.6832 0087874 211.8093 196.6416 14.92246448786221
AKARI (ASTRO-F)         
1 28939U 06005A   20202.51229476  .00000925  00000-0  27181-4 0  9993
2 28939  98.2339 180.4232 0092200 207.7191 151.9119 15.34405581785965
RESURS-DK 1             
1 29228U 06021A   20202.83430598  .00000001  00000-0  74124-5 0  9992
2 29228  69.9361 103.0234 0003049   9.1932 350.9283 15.02552043777763
GENESIS 1               
1 29252U 06029A   20202.41255094  .00000228  00000-0  20979-4 0  9996
2 29252  64.5222 193.7807 0005240 169.3621 190.7614 15.18169112773186
CZ-4B R/B               
1 29507U 06046C   20202.49731738 -.00000438  00000-0 -28900-4 0  9997
2 29507  97.7569 224.3290 0047706  55.5744 304.9975 15.00657534750324
CZ-2C R/B               
1 31114U 07010B   20202.57919158  .00000041  00000-0  37569-4 0  9998
2 31114  98.2581  53.2259 0059884 169.4878 190.7567 14.19326325687718
COSMO-SKYMED 1          
1 31598U 07023A   20202.76052412  .00000222  00000-0  34435-4 0  9990
2 31598  97.8854  25.4398 0001430  93.2076 266.9281 14.82156550709765
GENESIS 2               
1 31789U 07028A   20202.51690296 -.00000106  00000-0  53584-5 0  9997
2 31789  64.5021 235.0941 0041921 237.5157 122.1910 15.17294266720197
COSMOS 2428             
1 31792U 07029A   20202.71270834 -.00000344  00000-0 -16076-3 0  9994
2 31792  70.9074 203.1272 0009498   5.5611 354.5613 14.12316283673561
SL-16 R/B               
1 31793U 07029B   20202.39053524 -.00000313  00000-0 -13848-3 0  9994
2 31793  70.9749 177.1720 0002882 267.0633 245.8333 14.14432843674349
KORONAS-FOTON           
1 33504U 09003A   20202.44507027  .00000609  00000-0  30212-4 0  9999
2 33504  82.4415 189.9957 0019555 160.3280 199.8711 15.15664638632387
H-2A R/B                
1 38341U 12025E   20202.41890295  .00000116  00000-0  21056-4 0  9999
2 38341  98.5038 359.5753 0056573 125.3638 235.2880 14.84048557442256
CUSAT 2 & FALCON 9 R/B  
1 39271U 13055G   20202.49538102  .00004434  00000-0  10451-3 0  9993
2 39271  80.9638 231.4666 0588380  70.9315 295.4627 14.48333439355519
SL-4 R/B                
1 39679U 14021B   20202.54994379 -.00000106  00000-0  13548-4 0  9991
2 39679  51.6164 313.8281 0172326  60.5520 301.2523 15.06444689344019
ALOS-2                  
1 39766U 14029A   20202.78649293 -.00000186  00000-0 -18040-4 0  9995
2 39766  97.9230 298.9062 0001536  90.2919 269.8464 14.79469858332620
CZ-2C R/B               
1 40306U 14071B   20202.85935345  .00001947  00000-0  42798-4 0  9999
2 40306  97.3264 149.6738 0016968  48.6776 311.5930 15.45154865319034
SL-27 R/B               
1 40354U 14084B   20202.78247675  .00000587  00000-0  15559-4 0  9994
2 40354  74.7389 319.1407 0036531 132.5199 227.9109 15.40265824313665
YAOGAN 29               
1 41038U 15069A   20202.69205794  .00000011  00000-0  83101-5 0  9995
2 41038  98.0117 190.6111 0001985 106.6910 253.4512 14.80453158251198
ASTRO-H (HITOMI)        
1 41337U 16012A   20202.23356805  .00000173  00000-0  70801-5 0  9998
2 41337  31.0045 161.9186 0012309  34.9705 325.1737 14.98692954242427
SHENZHOU-11 MODULE      
1 41868U 16061G   20202.44726979  .00046379  93427-5  84457-4 0  9996
2 41868  42.7858 290.3758 0013651  24.7044  75.0348 16.01241573211353
HXMT (HUIYAN)           
1 42758U 17034A   20202.77417897  .00000108  00000-0  20446-4 0  9996
2 42758  43.0175 213.2014 0011851 242.8321 285.9849 15.08853082170901
CZ-2C R/B               
1 43521U 18054D   20202.44843418  .00000207  00000-0  13663-4 0  9997
2 43521  35.1546 336.6157 0082235  48.2433 312.5274 15.11022687114144
AEOLUS                  
1 43600U 18066A   20202.52958095  .00015845  00000-0  63284-4 0  9993
2 43600  96.7178 208.4287 0002978 103.5738 256.5866 15.86650013110619
SAOCOM 1A               
1 43641U 18076A   20202.83623863  .00000005  00000-0  72120-5 0  9997
2 43641  97.8902  28.4723 0001401  82.9594 277.1780 14.82151790 96548
CREW DRAGON DEMO-1 DEB  
1 44064U 19011B   20202.21920554  .00008064  00000-0  84002-4 0  9990
2 44064  51.6340 146.3502 0002985 161.3618 198.7487 15.65578058 78043
